start=new Date('2022-11-01T00:00:00.000Z').valueOf();
sats=[{"APOAPSIS":"548.048","MEAN_MOTION":"15.06400368","CENTER_NAME":"EARTH","LAUNCH_DATE":"2021-05-04","FILE":"3639522","SEMIMAJOR_AXIS":"6925.347","SITE":"AFETR","MEAN_ANOMALY":"246.5116","TIME_SYSTEM":"UTC","OBJECT_TYPE":"PAYLOAD","ARG_OF_PERICENTER":"113.6000","REV_AT_EPOCH":"8239","COUNTRY_CODE":"US","CLASSIFICATION_TYPE":"U","PERIOD":"95.592","MEAN_MOTION_DOT":"0.00000067","INCLINATION":"53.0545","OBJECT_ID":"2021-038E","OBJECT_NAME":"STARLINK-2636","TLE_LINE2":"2 48357  53.0545 100.8775 0001206 113.6000 246.5116 15.06400368 82399","RCS_SIZE":"LARGE","DECAY_DATE":null,"NORAD_CAT_ID":"48357","ECCENTRICITY":"0.00012060","BSTAR":"0.00002337400000","REF_FRAME":"TEME","PERIAPSIS":"546.377","EPHEMERIS_TYPE":"0","TLE_LINE1":"1 48357U 21038E   22304.69359813  .00000067  00000-0  23374-4 0  9992","ELEMENT_SET_NO":"999","MEAN_ELEMENT_THEORY":"SGP4","EPOCH":"2022-10-31T16:38:46.878432","GP_ID":"216616317","MEAN_MOTION_DDOT":"0.0000000000000","RA_OF_ASC_NODE":"100.8775"},{"OBJECT_NAME":"STARLINK-2624","TLE_LINE2":"2 48358  53.0554 100.2762 0001941 111.7711 248.3484 15.06408023 82400","OBJECT_ID":"2021-038F","MEAN_MOTION_DOT":"0.00000177","INCLINATION":"53.0554","PERIOD":"95.592","CLASSIFICATION_TYPE":"U","REV_AT_EPOCH":"8240","COUNTRY_CODE":"US","ARG_OF_PERICENTER":"111.7711","OBJECT_TYPE":"PAYLOAD","SITE":"AFETR","MEAN_ANOMALY":"248.3484","TIME_SYSTEM":"UTC","SEMIMAJOR_AXIS":"6925.324","FILE":"3639522","LAUNCH_DATE":"2021-05-04","MEAN_MOTION":"15.06408023","CENTER_NAME":"EARTH","APOAPSIS":"548.533","RA_OF_ASC_NODE":"100.2762","MEAN_MOTION_DDOT":"0.0000000000000","GP_ID":"216616068","EPOCH":"2022-10-31T19:40:36.239232","MEAN_ELEMENT_THEORY":"SGP4","ELEMENT_SET_NO":"999","TLE_LINE1":"1 48358U 21038F   22304.81986388  .00000177  00000-0  30813-4 0  9998","PERIAPSIS":"545.845","EPHEMERIS_TYPE":"0","REF_FRAME":"TEME","BSTAR":"0.00003081300000","ECCENTRICITY":"0.00019410","RCS_SIZE":"LARGE","DECAY_DATE":null,"NORAD_CAT_ID":"48358"},{"ARG_OF_PERICENTER":"112.2354","OBJECT_TYPE":"PAYLOAD","MEAN_ANOMALY":"247.8794","SITE":"AFETR","TIME_SYSTEM":"UTC","SEMIMAJOR_AXIS":"6925.377","FILE":"3639522","LAUNCH_DATE":"2021-05-04","CENTER_NAME":"EARTH","MEAN_MOTION":"15.06390613","APOAPSIS":"548.281","TLE_LINE2":"2 48359  53.0542 101.4873 0001500 112.2354 247.8794 15.06390613 82362","OBJECT_NAME":"STARLINK-2628","OBJECT_ID":"2021-038G","INCLINATION":"53.0542","MEAN_MOTION_DOT":"0.00001021","PERIOD":"95.593","CLASSIFICATION_TYPE":"U","COUNTRY_CODE":"US","REV_AT_EPOCH":"8236","ELEMENT_SET_NO":"999","TLE_LINE1":"1 48359U 21038G   22304.55080741  .00001021  00000-0  87423-4 0  9996","PERIAPSIS":"546.204","EPHEMERIS_TYPE":"0","BSTAR":"0.00008742300000","REF_FRAME":"TEME","ECCENTRICITY":"0.00015000","NORAD_CAT_ID":"48359","DECAY_DATE":null,"RCS_SIZE":"LARGE","RA_OF_ASC_NODE":"101.4873","MEAN_MOTION_DDOT":"0.0000000000000","GP_ID":"216614816","EPOCH":"2022-10-31T13:13:09.760224","MEAN_ELEMENT_THEORY":"SGP4"},{"ARG_OF_PERICENTER":"120.1792","OBJECT_TYPE":"PAYLOAD","SEMIMAJOR_AXIS":"6925.336","FILE":"3639522","SITE":"AFETR","TIME_SYSTEM":"UTC","MEAN_ANOMALY":"239.9334","LAUNCH_DATE":"2021-05-04","APOAPSIS":"548.155","CENTER_NAME":"EARTH","MEAN_MOTION":"15.06404151","TLE_LINE2":"2 48360  53.0545 100.0179 0001378 120.1792 239.9334 15.06404151 82419","OBJECT_NAME":"STARLINK-2622","MEAN_MOTION_DOT":"0.00001153","INCLINATION":"53.0545","OBJECT_ID":"2021-038H","PERIOD":"95.592","COUNTRY_CODE":"US","REV_AT_EPOCH":"8241","CLASSIFICATION_TYPE":"U","TLE_LINE1":"1 48360U 21038H   22304.87883665  .00001153  00000-0  96263-4 0  9997","ELEMENT_SET_NO":"999","BSTAR":"0.00009626300000","REF_FRAME":"TEME","PERIAPSIS":"546.247","EPHEMERIS_TYPE":"0","ECCENTRICITY":"0.00013780","NORAD_CAT_ID":"48360","DECAY_DATE":null,"RCS_SIZE":"LARGE","RA_OF_ASC_NODE":"100.0179","EPOCH":"2022-10-31T21:05:31.486560","MEAN_MOTION_DDOT":"0.0000000000000","GP_ID":"216615566","MEAN_ELEMENT_THEORY":"SGP4"},{"ARG_OF_PERICENTER":"127.6498","OBJECT_TYPE":"PAYLOAD","MEAN_ANOMALY":"232.4631","SITE":"AFETR","TIME_SYSTEM":"UTC","FILE":"3639522","SEMIMAJOR_AXIS":"6925.353","LAUNCH_DATE":"2021-05-04","CENTER_NAME":"EARTH","MEAN_MOTION":"15.06398431","APOAPSIS":"548.290","TLE_LINE2":"2 48361  53.0560 100.6315 0001547 127.6498 232.4631 15.06398431 82396","OBJECT_NAME":"STARLINK-2591","OBJECT_ID":"2021-038J","MEAN_MOTION_DOT":"0.00002322","INCLINATION":"53.0560","PERIOD":"95.592","CLASSIFICATION_TYPE":"U","COUNTRY_CODE":"US","REV_AT_EPOCH":"8239","ELEMENT_SET_NO":"999","TLE_LINE1":"1 48361U 21038J   22304.74245427  .00002322  00000-0  17471-3 0  9994","EPHEMERIS_TYPE":"0","PERIAPSIS":"546.147","REF_FRAME":"TEME","BSTAR":"0.00017471000000","ECCENTRICITY":"0.00015470","DECAY_DATE":null,"NORAD_CAT_ID":"48361","RCS_SIZE":"LARGE","RA_OF_ASC_NODE":"100.6315","GP_ID":"216615818","MEAN_MOTION_DDOT":"0.0000000000000","EPOCH":"2022-10-31T17:49:08.048928","MEAN_ELEMENT_THEORY":"SGP4"},{"MEAN_ELEMENT_THEORY":"SGP4","EPOCH":"2022-10-31T17:01:23.407680","GP_ID":"216616568","MEAN_MOTION_DDOT":"0.0000000000000","RA_OF_ASC_NODE":"100.8460","RCS_SIZE":"LARGE","DECAY_DATE":null,"NORAD_CAT_ID":"48362","ECCENTRICITY":"0.00013220","REF_FRAME":"TEME","BSTAR":"0.00026671000000","EPHEMERIS_TYPE":"0","PERIAPSIS":"546.290","TLE_LINE1":"1 48362U 21038K   22304.70929870  .00003694  00000-0  26671-3 0  9997","ELEMENT_SET_NO":"999","REV_AT_EPOCH":"8239","COUNTRY_CODE":"US","CLASSIFICATION_TYPE":"U","PERIOD":"95.592","INCLINATION":"53.0536","MEAN_MOTION_DOT":"0.00003694","OBJECT_ID":"2021-038K","OBJECT_NAME":"STARLINK-2578","TLE_LINE2":"2 48362  53.0536 100.8460 0001322 123.4978 236.6137 15.06402781 82392","APOAPSIS":"548.121","MEAN_MOTION":"15.06402781","CENTER_NAME":"EARTH","LAUNCH_DATE":"2021-05-04","FILE":"3639522","SEMIMAJOR_AXIS":"6925.340","SITE":"AFETR","TIME_SYSTEM":"UTC","MEAN_ANOMALY":"236.6137","ARG_OF_PERICENTER":"123.4978","OBJECT_TYPE":"PAYLOAD"},{"PERIOD":"95.592","CLASSIFICATION_TYPE":"U","REV_AT_EPOCH":"8247","COUNTRY_CODE":"US","OBJECT_NAME":"STARLINK-2626","TLE_LINE2":"2 48363  53.0545  95.4386 0001364 114.5205 245.5927 15.06408296 82471","OBJECT_ID":"2021-038L","INCLINATION":"53.0545","MEAN_MOTION_DOT":"-0.00000642","LAUNCH_DATE":"2021-05-04","MEAN_MOTION":"15.06408296","CENTER_NAME":"EARTH","APOAPSIS":"548.133","ARG_OF_PERICENTER":"114.5205","OBJECT_TYPE":"PAYLOAD","TIME_SYSTEM":"UTC","SITE":"AFETR","MEAN_ANOMALY":"245.5927","FILE":"3639522","SEMIMAJOR_AXIS":"6925.323","MEAN_ELEMENT_THEORY":"SGP4","RA_OF_ASC_NODE":"95.4386","GP_ID":"216615316","MEAN_MOTION_DDOT":"0.0000000000000","EPOCH":"2022-10-31T18:50:50.327808","ECCENTRICITY":"0.00013640","RCS_SIZE":"LARGE","NORAD_CAT_ID":"48363","DECAY_DATE":null,"ELEMENT_SET_NO":"999","TLE_LINE1":"1 48363U 21038L   22304.78530472 -.00000642  00000-0 -24189-4 0  9997","EPHEMERIS_TYPE":"0","PERIAPSIS":"546.244","REF_FRAME":"TEME","BSTAR":"-0.00002418900000"},{"MEAN_ELEMENT_THEORY":"SGP4","GP_ID":"216615067","MEAN_MOTION_DDOT":"0.0000000000000","EPOCH":"2022-10-31T20:47:40.108416","RA_OF_ASC_NODE":"95.2692","NORAD_CAT_ID":"48364","DECAY_DATE":null,"RCS_SIZE":"LARGE","ECCENTRICITY":"0.00013170","EPHEMERIS_TYPE":"0","PERIAPSIS":"546.329","BSTAR":"-0.00002214500000","REF_FRAME":"TEME","ELEMENT_SET_NO":"999","TLE_LINE1":"1 48364U 21038M   22304.86643644 -.00000611  00000-0 -22145-4 0  9999","CLASSIFICATION_TYPE":"U","COUNTRY_CODE":"US","REV_AT_EPOCH":"8248","PERIOD":"95.593","OBJECT_ID":"2021-038M","INCLINATION":"53.0550","MEAN_MOTION_DOT":"-0.00000611","TLE_LINE2":"2 48364  53.0550  95.2692 0001317  96.9407 263.1732 15.06391041 82481","OBJECT_NAME":"STARLINK-2611","CENTER_NAME":"EARTH","MEAN_MOTION":"15.06391041","APOAPSIS":"548.153","LAUNCH_DATE":"2021-05-04","SITE":"AFETR","TIME_SYSTEM":"UTC","MEAN_ANOMALY":"263.1732","FILE":"3639522","SEMIMAJOR_AXIS":"6925.376","OBJECT_TYPE":"PAYLOAD","ARG_OF_PERICENTER":"96.9407"},{"ARG_OF_PERICENTER":"130.7891","OBJECT_TYPE":"PAYLOAD","SITE":"AFETR","TIME_SYSTEM":"UTC","MEAN_ANOMALY":"229.3223","FILE":"3639522","SEMIMAJOR_AXIS":"6925.344","LAUNCH_DATE":"2021-05-04","CENTER_NAME":"EARTH","MEAN_MOTION":"15.06401572","APOAPSIS":"548.209","TLE_LINE2":"2 48365  53.0539  95.5404 0001444 130.7891 229.3223 15.06401572 82477","OBJECT_NAME":"STARLINK-2608","OBJECT_ID":"2021-038N","MEAN_MOTION_DOT":"0.00000181","INCLINATION":"53.0539","PERIOD":"95.592","CLASSIFICATION_TYPE":"U","COUNTRY_CODE":"US","REV_AT_EPOCH":"8247","ELEMENT_SET_NO":"999","TLE_LINE1":"1 48365U 21038N   22304.75949980  .00000181  00000-0  31045-4 0  9999","EPHEMERIS_TYPE":"0","PERIAPSIS":"546.209","BSTAR":"0.00003104500000","REF_FRAME":"TEME","ECCENTRICITY":"0.00014440","NORAD_CAT_ID":"48365","DECAY_DATE":null,"RCS_SIZE":"LARGE","RA_OF_ASC_NODE":"95.5404","GP_ID":"216616318","MEAN_MOTION_DDOT":"0.0000000000000","EPOCH":"2022-10-31T18:13:40.782720","MEAN_ELEMENT_THEORY":"SGP4"},{"ECCENTRICITY":"0.00013290","RCS_SIZE":"LARGE","NORAD_CAT_ID":"48366","DECAY_DATE":null,"TLE_LINE1":"1 48366U 21038P   22304.81341155  .00005443  00000-0  38402-3 0  9996","ELEMENT_SET_NO":"999","BSTAR":"0.00038402000000","REF_FRAME":"TEME","EPHEMERIS_TYPE":"0","PERIAPSIS":"546.297","MEAN_ELEMENT_THEORY":"SGP4","RA_OF_ASC_NODE":"90.3153","EPOCH":"2022-10-31T19:31:18.757920","GP_ID":"216616069","MEAN_MOTION_DDOT":"0.0000000000000","LAUNCH_DATE":"2021-05-04","APOAPSIS":"548.138","MEAN_MOTION":"15.06398682","CENTER_NAME":"EARTH","OBJECT_TYPE":"PAYLOAD","ARG_OF_PERICENTER":"126.0451","SEMIMAJOR_AXIS":"6925.353","FILE":"3639522","SITE":"AFETR","MEAN_ANOMALY":"234.0661","TIME_SYSTEM":"UTC","PERIOD":"95.592","REV_AT_EPOCH":"8254","COUNTRY_CODE":"US","CLASSIFICATION_TYPE":"U","OBJECT_NAME":"STARLINK-2631","TLE_LINE2":"2 48366  53.0538  90.3153 0001329 126.0451 234.0661 15.06398682 82547","INCLINATION":"53.0538","MEAN_MOTION_DOT":"0.00005443","OBJECT_ID":"2021-038P"}];
